{"fetched_at":"2026-03-29T02:12:04Z","count":15717,"tles":[{"name":"TIANPING 3A-01","line1":"1 61614U 24189A   26086.51714256  .00004369  00000+0  34728-3 0  9993","line2":"2 61614  97.5325 109.2933 0001154  68.9755 291.1593 15.00941129 78231","category":"Other"}]}