{
  "norad_id": 61614,
  "name": "TIANPING 3A-01",
  "history": [
    {
      "epoch": "2026-03-27T12:24:41.117184",
      "apogee_km": 564.794019995592,
      "perigee_km": 563.1917764150849,
      "latitude_deg": -83.43135280544209,
      "longitude_deg": -64.95431424025446,
      "semi_major_axis_km": 6942.129898205338,
      "eccentricity": 0.0001154,
      "inclination_deg": 97.5325,
      "raan_deg": 109.2933,
      "arg_perigee_deg": 68.9755,
      "mean_anomaly_deg": 291.1593,
      "mean_motion_rev_day": 15.00941129
    }
  ]
}